{
  "norad_id": 67017,
  "name": "STARLINK-35498",
  "history": [
    {
      "epoch": "2026-03-28T21:01:20.502336Z",
      "apogee_km": 574.0378216551526,
      "perigee_km": 570.0471675929293,
      "latitude_deg": -1.4097304912264322e-05,
      "longitude_deg": -95.6242251388219,
      "height_km": 574.4174392301841,
      "semi_major_axis_km": 6950.179494624041,
      "eccentricity": 0.00028709,
      "inclination_deg": 70.0014,
      "raan_deg": 46.0013,
      "arg_perigee_deg": 271.5071,
      "mean_anomaly_deg": 88.5759,
      "mean_motion_rev_day": 14.98334332
    },
    {
      "epoch": "2026-03-29T05:02:00.710016Z",
      "apogee_km": 574.019666703437,
      "perigee_km": 570.026104833074,
      "latitude_deg": 1.1691057380455238e-05,
      "longitude_deg": 143.0374452417281,
      "height_km": 574.4075838171804,
      "semi_major_axis_km": 6950.159885768255,
      "eccentricity": 0.0002873,
      "inclination_deg": 70.0015,
      "raan_deg": 45.1595,
      "arg_perigee_deg": 271.2265,
      "mean_anomaly_deg": 88.8565,
      "mean_motion_rev_day": 14.98340673
    },
    {
      "epoch": "2026-03-30T03:27:52.843968Z",
      "apogee_km": 573.6474397821876,
      "perigee_km": 570.2905385894101,
      "latitude_deg": -3.0468028106090826e-05,
      "longitude_deg": 163.29209122365998,
      "height_km": 574.4083939407797,
      "semi_major_axis_km": 6950.1059891857985,
      "eccentricity": 0.0002415,
      "inclination_deg": 70.0027,
      "raan_deg": 42.8026,
      "arg_perigee_deg": 269.5793,
      "mean_anomaly_deg": 90.5089,
      "mean_motion_rev_day": 14.98358102
    },
    {
      "epoch": "2026-03-30T05:04:01.112736Z",
      "apogee_km": 573.6202097304249,
      "perigee_km": 570.413408762839,
      "latitude_deg": 3.0228535981089602e-05,
      "longitude_deg": 139.0237560740217,
      "height_km": 574.4413688287688,
      "semi_major_axis_km": 6950.153809246632,
      "eccentricity": 0.0002307,
      "inclination_deg": 70.0028,
      "raan_deg": 42.6345,
      "arg_perigee_deg": 270.0853,
      "mean_anomaly_deg": 90.0042,
      "mean_motion_rev_day": 14.98342638
    },
    {
      "epoch": "2026-03-30T06:40:08.842368Z",
      "apogee_km": 573.7976079508626,
      "perigee_km": 570.1488000937497,
      "latitude_deg": 7.101168616548816e-05,
      "longitude_deg": 114.75726626834357,
      "height_km": 574.4095337458109,
      "semi_major_axis_km": 6950.110204022306,
      "eccentricity": 0.0002625,
      "inclination_deg": 70.0022,
      "raan_deg": 42.466,
      "arg_perigee_deg": 269.715,
      "mean_anomaly_deg": 90.3709,
      "mean_motion_rev_day": 14.98356739
    }
  ]
}